IRIDIUM 119             
1 42959U 17061E   24340.90878134  .00000251  00000+0  82581-4 0  9992
2 42959  86.3973 258.5017 0002393  75.1032 285.0429 14.34218997374798
IRIDIUM 107             
1 42960U 17061F   24340.85803865  .00000219  00000+0  71001-4 0  9996
2 42960  86.3974 258.5408 0001983  71.2754 288.8657 14.34218570374798
IRIDIUM 132             
1 42961U 17061G   24341.49229536  .00000752  00000+0  26132-3 0  9991
2 42961  86.3972 258.2591 0002037  76.9920 283.1503 14.34222173374887
IRIDIUM 136             
1 42962U 17061H   24340.82631919  .00000091  00000+0  25323-4 0  9998
2 42962  86.3971 258.5416 0002234  73.7469 286.3972 14.34213733374807
IRIDIUM 139             
1 42963U 17061J   24341.32104652  .00001133  00000+0  39768-3 0  9999
2 42963  86.3973 258.3875 0002146  71.9416 288.2013 14.34204054374882
IRIDIUM 125             
1 42964U 17061K   24340.88975436  .00000661  00000+0  22887-3 0  9995
2 42964  86.3974 258.6187 0002556  68.9336 291.2133 14.34219501374830
IRIDIUM 135             
1 43070U 17083A   24341.07318208  .00000053  00000+0  11899-4 0  9995
2 43070  86.3999 195.2565 0001893  94.3655 265.7757 14.34218549364155
IRIDIUM 138             
1 43071U 17083B   24341.09854738  .00000051  00000+0  11312-4 0  9999
2 43071  86.3987 194.9417 0002714  82.4353 277.7150 14.34219150364149
